SL-8 R/B                
1 19257U 88053B   26071.58686132  .00000304  00000+0  10685-3 0  9992
2 19257  74.0456 107.1257 0021473 286.0145 188.5505 14.38917770977011
COSMOS 1975             
1 19573U 88093A   26071.60607531  .00007180  00000+0  26024-3 0  9999
2 19573  82.5183 114.7575 0012413 153.5264 206.6612 15.28114295 19855
SL-14 R/B               
1 19574U 88093B   26071.43503709  .00000749  00000+0  83340-4 0  9992
2 19574  82.5309  39.4663 0021577  32.8451  88.9894 14.85660630  1423
SL-16 R/B               
1 19650U 88102B   26071.65968976  .00000274  00000+0  16251-3 0  9992
2 19650  70.9998 145.2486 0014158 357.0023   3.1013 14.16154077927310
INTERCOSMOS 24          
1 20261U 89080A   26071.58257779  .00000833  00000+0  24814-3 0  9997
2 20261  82.6021 102.5200 1186682 286.0994  61.2826 12.59562801667162
SL-14 R/B               
1 20262U 89080C   26071.75662515  .00000633  00000+0  18538-3 0  9999
2 20262  82.5974 171.2182 1230660 177.7419 183.0018 12.50497915660539
DELTA 1 R/B             
1 20323U 89089B   26071.58680242  .00000412  00000+0  11020-3 0  9998
2 20323  97.0704 278.5648 0070581 112.9989 247.8674 14.50665673896159
ARIANE 40 R/B           
1 20443U 90005H   26071.73215530  .00000309  00000+0  11175-3 0  9998
2 20443  98.3078 132.3029 0010033 189.1900 170.9107 14.39872747893248
DELTA 2 R/B(1)          
1 20453U 90008B   26071.58229221  .00068711  00000+0  79308-3 0  9990
2 20453  35.6032 155.8638 0084468 285.3867  73.7550 15.56385855926588
COSMOS 2058             
1 20465U 90010A   26071.42889697  .00004772  00000+0  28118-3 0  9998
2 20465  82.4668  44.7287 0008931 335.5228  24.5576 15.11349429942658
SL-14 R/B               
1 20466U 90010B   26071.58709814  .00000530  00000+0  61353-4 0  9995
2 20466  82.4986 264.6662 0018420 292.0668  67.8591 14.83571789928915
SL-14 R/B               
1 20511U 90018B   26071.47270538  .00000656  00000+0  79303-4 0  9991
2 20511  82.5208 220.4881 0017645  83.6362 276.6861 14.82148561922999
HST                     
1 20580U 90037B   26071.22647860  .00008646  00000+0  28559-3 0  9990
2 20580  28.4723  22.6938 0001818 150.2149 209.8550 15.29528665773705
SL-16 R/B               
1 20625U 90046B   26071.73693960 -.00000150  00000+0 -52625-4 0  9994
2 20625  70.9981 291.5147 0016198 295.5364  64.4084 14.15011499848820
COSMOS 2084             
1 20663U 90055A   26071.71059065  .00002809  00000+0  20683-3 0  9995
2 20663  62.7917 325.2753 0016622 190.7601 169.3146 15.05671013936770
SL-6 R/B(2)             
1 20666U 90055D   26071.83037498  .00002577  00000+0  20089-3 0  9999
2 20666  62.7824 243.1697 0025307 347.7973  12.2510 15.03612237938663
SL-8 R/B                
1 20775U 90078B   26071.53213440  .00015911  00000+0  46878-3 0  9995
2 20775  82.9003 248.7539 0361621   4.4419 355.9858 14.89163958809727
